STARLINK-5101           
1 54822U 22177C   23006.91667824 -.01056653  00000+0 -44960-2 0  9996
2 54822  42.9998 317.9849 0003399 268.2543 257.9415 15.86764182  1652
STARLINK-5106           
1 54823U 22177D   23006.58334491 -.01026708  00000+0 -41936-2 0  9999
2 54823  43.0002 320.0461 0007280 263.4415 154.2654 15.87442695  1606
STARLINK-4643           
1 54824U 22177E   23006.58334491 -.01026722  00000+0 -41941-2 0  9992
2 54824  43.0002 320.0451 0006618 265.7957 152.2210 15.87454172  1605
STARLINK-4801           
1 54825U 22177F   23006.58334491 -.01068644  00000+0 -43731-2 0  9991
2 54825  43.0003 320.0437 0007114 263.1014 155.5571 15.87506111  1606
STARLINK-5107           
1 54826U 22177G   23006.58334491 -.01031196  00000+0 -42049-2 0  9995
2 54826  43.0001 320.0426 0007133 263.9725 155.0031 15.87489447  1609
STARLINK-5383           
1 54827U 22177H   23006.58334491 -.01070000  00000+0 -43680-2 0  9995
2 54827  43.0003 320.0406 0007400 261.9633 157.9308 15.87551610  1603
STARLINK-5381           
1 54828U 22177J   23006.58334491 -.01029327  00000+0 -41859-2 0  9998
2 54828  43.0003 320.0396 0007367 263.2431 156.9256 15.87534283  1603
STARLINK-5380           
1 54829U 22177K   23006.58334491 -.01069672  00000+0 -43772-2 0  9992
2 54829  43.0003 320.0444 0007764 260.2051 158.1558 15.87494870  1600
STARLINK-5394           
1 54830U 22177L   23006.58334491 -.01070609  00000+0 -43579-2 0  9991
2 54830  43.0003 320.0373 0007876 259.8604 161.1801 15.87599862  1607
STARLINK-5395           
1 54831U 22177M   23006.58334491 -.01069843  00000+0 -43689-2 0  9992
2 54831  43.0003 320.0414 0007490 261.6111 157.9230 15.87542260  1609
STARLINK-5393           
1 54832U 22177N   23006.58334491 -.01071982  00000+0 -43520-2 0  9994
2 54832  43.0004 320.0364 0009816 251.2166 170.2032 15.87608528  1602
STARLINK-5391           
1 54833U 22177P   23006.58334491 -.01033586  00000+0 -42009-2 0  9994
2 54833  43.0001 320.0381 0007007 264.4211 156.2917 15.87562642  1608
STARLINK-5386           
1 54834U 22177Q   23006.58334491 -.01069826  00000+0 -43521-2 0  9991
2 54834  43.0003 320.0358 0007275 262.5354 159.0867 15.87623188  1607
STARLINK-5389           
1 54835U 22177R   23006.58334491 -.01070122  00000+0 -43631-2 0  9995
2 54835  43.0003 320.0389 0007444 261.6885 158.7829 15.87575538  1608
STARLINK-5384           
1 54836U 22177S   23006.58334491 -.01070283  00000+0 -43476-2 0  9991
2 54836  43.0003 320.0340 0007745 260.2596 162.0443 15.87643014  1609
STARLINK-5369           
1 54837U 22177T   23006.91667824 -.01055906  00000+0 -44668-2 0  9997
2 54837  42.9999 317.9781 0004078 268.7142 260.2590 15.86868708  1659
STARLINK-5372           
1 54838U 22177U   23006.58334491 -.01069655  00000+0 -43433-2 0  9997
2 54838  43.0003 320.0325 0007002 263.4499 159.4549 15.87665646  1609
STARLINK-5110           
1 54839U 22177V   23006.58334491 -.01070521  00000+0 -43408-2 0  9994
2 54839  43.0003 320.0310 0007384 261.9277 161.6271 15.87687030  1602
STARLINK-5368           
1 54840U 22177W   23006.58334491 -.01071090  00000+0 -43379-2 0  9995
2 54840  43.0003 320.0300 0008047 258.9720 164.9106 15.87697433  1600
STARLINK-4659           
1 54841U 22177X   23006.58334491 -.01030186  00000+0 -41720-2 0  9995
2 54841  43.0000 320.0334 0006923 264.7115 157.8168 15.87628301  1606
STARLINK-5387           
1 54842U 22177Y   23006.58334491 -.01053162  00000+0 -42593-2 0  9994
2 54842  43.0002 320.0283 0007011 263.8794 160.6378 15.87706446  1606
STARLINK-5304           
1 54843U 22177Z   23006.58334491 -.01070030  00000+0 -43419-2 0  9996
2 54843  43.0003 320.0317 0007299 262.3578 160.9409 15.87673590  1609
STARLINK-5388           
1 54844U 22177AA  23006.91667824 -.01053960  00000+0 -44303-2 0  9999
2 54844  43.0000 317.9687 0004395 268.5559 264.0227 15.86986548  1651
STARLINK-5082           
1 54845U 22177AB  23006.91667824 -.01054408  00000+0 -44424-2 0  9992
2 54845  43.0000 317.9722 0004260 268.7079 262.5580 15.86943645  1658
STARLINK-5360           
1 54846U 22177AC  23006.91667824 -.01053147  00000+0 -44292-2 0  9995
2 54846  43.0000 317.9702 0005021 267.7203 264.2176 15.86963589  1650
STARLINK-5061           
1 54847U 22177AD  23006.91667824 -.00752146  18147-3 -20257-2 0  9990
2 54847  42.9995 317.7848 0024225 241.0098   7.2632 15.92847004  1657
STARLINK-5432           
1 54848U 22177AE  23006.91667824 -.01054179  00000+0 -44256-2 0  9993
2 54848  42.9999 317.9671 0004518 268.2607 264.9206 15.87010492  1654
STARLINK-5434           
1 54849U 22177AF  23006.91667824 -.01053626  00000+0 -44243-2 0  9996
2 54849  43.0000 317.9682 0004768 268.0522 264.7719 15.87000362  1655
STARLINK-5087           
1 54850U 22177AG  23006.91667824 -.01052664  00000+0 -44124-2 0  9997
2 54850  43.0000 317.9654 0004973 267.7659 266.0858 15.87030216  1651
STARLINK-5084           
1 54851U 22177AH  23006.91667824 -.01053434  00000+0 -44200-2 0  9999
2 54851  43.0000 317.9664 0004477 268.4760 265.0349 15.87020602  1655
STARLINK-5418           
1 54852U 22177AJ  23006.58334491 -.01071032  00000+0 -43091-2 0  9995
2 54852  43.0003 320.0207 0007882 259.6326 167.8912 15.87832146  1604
STARLINK-5427           
1 54853U 22177AK  23006.58334491 -.01070842  00000+0 -43129-2 0  9996
2 54853  43.0003 320.0226 0007764 260.2221 166.5993 15.87813374  1604
STARLINK-5419           
1 54854U 22177AL  23006.58334491 -.01069333  00000+0 -42974-2 0  9997
2 54854  43.0002 320.0190 0007782 260.4298 167.7169 15.87852896  1600
STARLINK-5416           
1 54855U 22177AM  23006.58334491 -.01070241  00000+0 -43058-2 0  9992
2 54855  43.0003 320.0203 0007146 263.0165 164.7072 15.87846999  1600
STARLINK-5086           
1 54856U 22177AN  23006.58334491 -.01033738  00000+0 -41281-2 0  9999
2 54856  43.0000 320.0133 0007481 262.4480 167.8574 15.87903217  1603
STARLINK-5078           
1 54857U 22177AP  23006.58334491 -.01070349  00000+0 -43120-2 0  9993
2 54857  43.0003 320.0217 0007013 263.4502 163.6982 15.87823527  1609
STARLINK-5407           
1 54858U 22177AQ  23006.58334491 -.01070375  00000+0 -42990-2 0  9997
2 54858  43.0003 320.0177 0007221 262.6152 166.0439 15.87879533  1600
STARLINK-5409           
1 54859U 22177AR  23006.58334491 -.01071199  00000+0 -42915-2 0  9990
2 54859  43.0003 320.0144 0007786 260.1683 169.8501 15.87918923  1601
STARLINK-5406           
1 54860U 22177AS  23006.58334491 -.01069736  00000+0 -42811-2 0  9991
2 54860  43.0001 320.0128 0007508 261.5684 168.9944 15.87942691  1601
STARLINK-5400           
1 54861U 22177AT  23006.58334491 -.01070613  00000+0 -43005-2 0  9994
2 54861  43.0003 320.0186 0007610 260.9045 167.4323 15.87869115  1600
STARLINK-5403           
1 54862U 22177AU  23006.58334491 -.01071159  00000+0 -42905-2 0  9999
2 54862  43.0004 320.0159 0008855 255.4281 173.9456 15.87897763  1604
STARLINK-5405           
1 54863U 22177AV  23006.58334491 -.01070727  00000+0 -42939-2 0  9997
2 54863  43.0003 320.0156 0007051 263.4022 166.1469 15.87914011  1604
STARLINK-5359           
1 54864U 22177AW  23006.58334491 -.01071092  00000+0 -42806-2 0  9997
2 54864  43.0003 320.0114 0007791 260.0700 171.0639 15.87966955  1479
STARLINK-5411           
1 54865U 22177AX  23006.58334491 -.01070530  00000+0 -42976-2 0  9992
2 54865  43.0003 320.0169 0007149 262.9733 165.9914 15.87890757  1478
STARLINK-5398           
1 54866U 22177AY  23006.91667824 -.01025000  00000+0 -42445-2 0  9992
2 54866  42.9995 317.9500 0004835 267.9295 271.6347 15.87210820  1650
STARLINK-5396           
1 54867U 22177AZ  23006.91667824 -.01052862  00000+0 -43816-2 0  9992
2 54867  43.0000 317.9543 0004141 268.4317 269.8173 15.87188474  1530
STARLINK-5379           
1 54868U 22177BA  23006.91667824 -.01039269  00000+0 -43058-2 0  9997
2 54868  42.9996 317.9487 0004145 268.2372 271.9176 15.87245378  1537
STARLINK-5402           
1 54869U 22177BB  23006.58334491 -.01070608  00000+0 -42768-2 0  9991
2 54869  43.0003 320.0100 0007132 262.9570 168.7868 15.87988863  1473
STARLINK-5401           
1 54870U 22177BC  23006.58334491 -.01071336  00000+0 -42741-2 0  9993
2 54870  43.0003 320.0082 0007363 261.9928 170.3540 15.88011548  1470
STARLINK-5397           
1 54871U 22177BD  23006.58334491 -.01056130  00000+0 -42149-2 0  9991
2 54871  43.0001 320.0105 0007504 261.8886 169.5701 15.87966508  1477
STARLINK-5390           
1 54872U 22177BE  23006.33334491 -.01062246  00000+0 -45217-2 0  9999
2 54872  43.0001 321.6987 0008162 258.5162 135.8561 15.86679867  1438
STARLINK-5091           
1 54873U 22177BF  23006.91667824 -.01034971  00000+0 -42839-2 0  9994
2 54873  42.9996 317.9478 0004396 268.0237 272.5208 15.87250317  1654
FALCON 9 DEB            
1 54874U 22177BG  23006.80939414  .03935306  88911-5  77542-3 0  9995
2 54874  42.9838 317.4859 0043872 222.9288 136.8172 16.27490492  1528
FALCON 9 DEB            
1 54875U 22177BH  23006.24884504  .04118819  89059-5  81440-3 0  9992
2 54875  42.9855 321.0745 0040038 222.8306 136.9461 16.27940876  1432
FALCON 9 DEB            
1 54876U 22177BJ  23006.29828041  .07066279  89905-5  68112-3 0  9998
2 54876  42.9855 320.5435 0023764 217.2082 142.7163 16.36276342  1444
FALCON 9 DEB            
1 54877U 22177BK  23005.32137978  .02686001  88251-5  79215-3 0  9999
2 54877  42.9923 327.0100 0050180 209.7818 150.0209 16.22562598  1299
SHIYAN 10-02 (SY-10 02) 
1 54878U 22178A   22363.79780338  .00010514 -29619-6  76203-3 0  9999
2 54878  50.9887 118.8514 7525127 225.2265  62.4328  2.01047938    45
CZ-3B R/B               
1 54879U 22178B   23005.80031094  .00004790  00000+0  14170-2 0  9992
2 54879  51.3571 117.0118 7522474 227.1637  38.9366  1.99191056   179
EROS C3                 
1 54880U 22179A   23006.63972166  .00000261  00000+0  00000+0 0  9994
2 54880 139.3592 263.8105 0012783 315.9774  44.0316 15.24207847  1123
